OBJECT_NAME,OBJECT_ID,EPOCH,MEAN_MOTION,ECCENTRICITY,INCLINATION,RA_OF_ASC_NODE,ARG_OF_PERICENTER,MEAN_ANOMALY,EPHEMERIS_TYPE,CLASSIFICATION_TYPE,NORAD_CAT_ID,ELEMENT_SET_NO,REV_AT_EPOCH,BSTAR,MEAN_MOTION_DOT,MEAN_MOTION_DDOT
IRIDIUM 156,2018-061H,2026-06-11T16:12:42.387840,14.34216913,.0002109,86.3962,59.0340,80.4573,279.6861,0,U,43576,999,41258,.62663E-4,.195E-5,0
IRIDIUM 164,2018-061J,2026-06-11T15:45:18.457632,14.34217643,.0002093,86.3967,59.0824,88.8767,271.2668,0,U,43577,999,41262,.18632E-4,.72E-6,0
IRIDIUM 159,2018-061K,2026-06-11T16:40:06.477024,14.34217298,.0002314,86.3963,59.0034,84.4327,275.7133,0,U,43578,999,41259,.36502E-4,.122E-5,0
IRIDIUM 180,2019-002A,2026-06-11T14:58:54.882048,14.34217695,.0002141,86.3967,355.9237,89.0468,271.0973,0,U,43922,999,38819,-.55045E-5,.4E-7,0
IRIDIUM 176,2019-002B,2026-06-11T14:03:17.904960,14.72259705,.0002239,86.6092,355.8843,91.6115,268.5359,0,U,43923,999,39842,.10567E-3,.691E-5,0
IRIDIUM 168,2019-002C,2026-06-11T14:49:46.965216,14.34217797,.0002172,86.3974,356.0035,88.8513,271.2932,0,U,43924,999,38817,.82047E-5,.43E-6,0
IRIDIUM 173,2019-002D,2026-06-11T14:31:30.916416,14.34217084,.0002126,86.3965,355.8977,86.6051,273.5388,0,U,43925,999,38815,-.52121E-5,.5E-7,0
IRIDIUM 169,2019-002E,2026-06-11T16:30:24.244704,14.38606189,.0002044,86.4230,27.4928,70.8766,289.2653,0,U,43926,999,38943,.33591E-4,.123E-5,0
IRIDIUM 172,2019-002F,2026-06-11T14:22:22.819872,14.34216981,.0002258,86.3970,355.9086,89.5000,270.6455,0,U,43927,999,38816,.55461E-4,.175E-5,0
IRIDIUM 175,2019-002G,2026-06-11T10:52:52.654080,14.43609548,.0001749,86.4508,292.9181,200.8836,159.2294,0,U,43928,999,39815,.71507E-4,.262E-5,0
IRIDIUM 171,2019-002H,2026-06-11T13:54:58.797216,14.34217083,.000192,86.3975,356.2219,86.0644,274.0771,0,U,43929,999,38815,-.10664E-3,-.279E-5,0
IRIDIUM 170,2019-002J,2026-06-11T14:12:12.074688,14.72260116,.0002364,86.6090,355.8840,88.1225,272.0262,0,U,43930,999,39843,.10501E-3,.687E-5,0
IRIDIUM 167,2019-002K,2026-06-11T13:45:50.870880,14.34217893,.0001852,86.3971,355.9413,87.5306,272.6101,0,U,43931,999,38815,.1195E-4,.53E-6,0
IRIDIUM 181,2023-068S,2026-06-11T16:46:13.352160,14.43311762,.0002329,86.4503,59.0849,89.7441,270.4027,0,U,56726,999,16164,.75393E-4,.274E-5,0
IRIDIUM 177,2023-068T,2026-06-11T12:12:42.608736,14.80219553,.0002413,86.1959,331.4891,87.3635,272.7862,0,U,56727,999,16552,.11706E-3,.916E-5,0
IRIDIUM 174,2023-068U,2026-06-11T13:54:24.969024,14.72256247,.0002543,86.6098,356.0361,84.7822,275.3685,0,U,56728,999,16519,.10861E-3,.71E-5,0
IRIDIUM 178,2023-068V,2026-06-11T15:11:45.140640,14.80224307,.000268,86.6542,27.6815,87.4832,272.6696,0,U,56729,999,16554,.11028E-3,.864E-5,0
IRIDIUM 179,2023-068W,2026-06-11T16:41:20.406048,14.80236495,.0002402,86.6781,36.6189,88.1339,272.0158,0,U,56730,999,16555,.12242E-3,.956E-5,0
